SPACEMOBILE-006         
1 67232U 25309A   26062.32416930  .00002546  00000+0  13914-3 0  9990
2 67232  52.9962  96.3138 0011256 161.2555 198.8855 15.17976718 10518
